STARLINK-1201
1 15182C 20012E   21326.14472050  .00008648  00000-0  57925-3 0  3263
2 15182  53.0529 228.1018 0002034  74.2794  78.2577 15.06401733    17
